ONEWEB-0592             
1 54658U 22166S   22347.91667824  .00053448  00000+0  53858-2 0  9990
2 54658  86.5150 156.1494 0006380 225.6591 348.1403 14.90876173  1305
ONEWEB-0593             
1 54659U 22166T   22347.91667824  .00053311  00000+0  52761-2 0  9992
2 54659  86.5176 156.1506 0009160 216.4058   9.8784 14.91582853  1306
ONEWEB-0594             
1 54660U 22166U   22347.91667824  .00052894  00000+0  51872-2 0  9991
2 54660  86.5170 156.1470 0010697 220.7600  11.9303 14.91939770  1305
ONEWEB-0595             
1 54661U 22166V   22347.91667824  .00053093  00000+0  52518-2 0  9992
2 54661  86.5178 156.1505 0009264 216.4336  10.2758 14.91604129  1302
ONEWEB-0596             
1 54662U 22166W   22347.91667824  .00053313  00000+0  52941-2 0  9998
2 54662  86.5163 156.1462 0008628 215.3105   8.7210 14.91452198  1306
ONEWEB-0597             
1 54663U 22166X   22347.91667824  .00052414  00000+0  51206-2 0  9993
2 54663  86.5154 156.1471 0011149 223.5075  11.8260 14.92090504  1306
ONEWEB-0600             
1 54664U 22166Y   22347.91667824  .00052229  00000+0  50837-2 0  9997
2 54664  86.5158 156.1467 0011418 226.1558  11.7230 14.92236282  1301
ONEWEB-0601             
1 54665U 22166Z   22347.91667824  .00052888  00000+0  51688-2 0  9994
2 54665  86.5184 156.1459 0011106 222.9928  11.9940 14.92073601  1305
